{
  "norad_id": 68694,
  "name": "JILIN GAOFEN OBJECT D",
  "history": [
    {
      "epoch": "2026-04-14T13:03:17.510688Z",
      "apogee_km": 548.3557261421411,
      "perigee_km": 528.1695221990358,
      "latitude_deg": 1.8252050385164025e-05,
      "longitude_deg": 141.64507930302963,
      "height_km": 537.7880695827987,
      "semi_major_axis_km": 6916.399624170588,
      "eccentricity": 0.0014593,
      "inclination_deg": 97.6638,
      "raan_deg": 180.1869,
      "arg_perigee_deg": 290.5897,
      "mean_anomaly_deg": 69.3766,
      "mean_motion_rev_day": 15.09324578
    }
  ]
}