JILIN GAOFEN OBJECT D
1 68694U 26080D   26104.54395267  .00001577  00000+0  10280-3 0  9996
2 68694  97.6638 180.1869 0014593 290.5897  69.3766 15.09324578    44
